start=new Date('2022-04-13T00:00:00.000Z').valueOf();
sats=[{"MEAN_MOTION_DDOT":"0.0000000000000","SITE":"AFETR","EPHEMERIS_TYPE":"0","MEAN_ELEMENT_THEORY":"SGP4","APOAPSIS":"540.890","REV_AT_EPOCH":"359","SEMIMAJOR_AXIS":"6917.866","CLASSIFICATION_TYPE":"U","TIME_SYSTEM":"UTC","CENTER_NAME":"EARTH","ECCENTRICITY":"0.00016740","TLE_LINE1":"1 49752U 21115AE  22102.91667824  .00011639  00000-0  74807-3 0  9996","DECAY_DATE":null,"OBJECT_ID":"2021-115AE","PERIAPSIS":"538.573","FILE":"3398892","OBJECT_TYPE":"PAYLOAD","PERIOD":"95.437","ELEMENT_SET_NO":"999","NORAD_CAT_ID":"49752","REF_FRAME":"TEME","MEAN_MOTION_DOT":"0.00011639","RA_OF_ASC_NODE":"64.1576","INCLINATION":"53.2174","MEAN_ANOMALY":"216.2562","BSTAR":"0.00074807000000","COUNTRY_CODE":"US","LAUNCH_DATE":"2021-12-02","OBJECT_NAME":"STARLINK-3209","TLE_LINE2":"2 49752  53.2174  64.1576 0001674  65.2429 216.2562 15.08844552  3599","RCS_SIZE":"LARGE","GP_ID":"201094808","ARG_OF_PERICENTER":"65.2429","MEAN_MOTION":"15.08844552","EPOCH":"2022-04-12T22:00:00.999936"},{"FILE":"3398892","PERIOD":"95.438","OBJECT_TYPE":"PAYLOAD","DECAY_DATE":null,"TLE_LINE1":"1 49753U 21115AF  22102.91667824  .00027824  00000-0  17599-2 0  9994","OBJECT_ID":"2021-115AF","PERIAPSIS":"538.294","CLASSIFICATION_TYPE":"U","ECCENTRICITY":"0.00021460","CENTER_NAME":"EARTH","TIME_SYSTEM":"UTC","MEAN_MOTION_DDOT":"0.0000000000000","REV_AT_EPOCH":"357","SEMIMAJOR_AXIS":"6917.914","APOAPSIS":"541.264","SITE":"AFETR","EPHEMERIS_TYPE":"0","MEAN_ELEMENT_THEORY":"SGP4","MEAN_MOTION":"15.08829004","ARG_OF_PERICENTER":"48.1880","EPOCH":"2022-04-12T22:00:00.999936","TLE_LINE2":"2 49753  53.2235  74.1337 0002146  48.1880 338.3102 15.08829004  3579","LAUNCH_DATE":"2021-12-02","OBJECT_NAME":"STARLINK-3200","GP_ID":"201095059","RCS_SIZE":"LARGE","BSTAR":"0.00175990000000","MEAN_ANOMALY":"338.3102","INCLINATION":"53.2235","COUNTRY_CODE":"US","REF_FRAME":"TEME","ELEMENT_SET_NO":"999","NORAD_CAT_ID":"49753","RA_OF_ASC_NODE":"74.1337","MEAN_MOTION_DOT":"0.00027824"},{"INCLINATION":"53.2157","MEAN_ANOMALY":"216.6376","BSTAR":"-0.00094789000000","COUNTRY_CODE":"US","NORAD_CAT_ID":"49754","ELEMENT_SET_NO":"999","REF_FRAME":"TEME","MEAN_MOTION_DOT":"-0.00018560","RA_OF_ASC_NODE":"64.5222","ARG_OF_PERICENTER":"276.8571","MEAN_MOTION":"15.15729567","EPOCH":"2022-04-12T22:00:00.999936","OBJECT_NAME":"STARLINK-3193","LAUNCH_DATE":"2021-12-02","TLE_LINE2":"2 49754  53.2157  64.5222 0007517 276.8571 216.6376 15.15729567  3586","RCS_SIZE":"LARGE","GP_ID":"201095810","CLASSIFICATION_TYPE":"U","TIME_SYSTEM":"UTC","CENTER_NAME":"EARTH","ECCENTRICITY":"0.00075170","MEAN_MOTION_DDOT":"0.0000000000000","EPHEMERIS_TYPE":"0","SITE":"AFETR","MEAN_ELEMENT_THEORY":"SGP4","APOAPSIS":"523.951","SEMIMAJOR_AXIS":"6896.902","REV_AT_EPOCH":"358","FILE":"3398892","OBJECT_TYPE":"PAYLOAD","PERIOD":"95.004","TLE_LINE1":"1 49754U 21115AG  22102.91667824 -.00018560  00000-0 -94789-3 0  9991","OBJECT_ID":"2021-115AG","DECAY_DATE":null,"PERIAPSIS":"513.582"},{"OBJECT_NAME":"STARLINK-3210","LAUNCH_DATE":"2021-12-02","TLE_LINE2":"2 49755  53.2170  74.1384 0002509  32.5886 313.9148 15.08815539  3563","RCS_SIZE":"LARGE","GP_ID":"201094558","ARG_OF_PERICENTER":"32.5886","MEAN_MOTION":"15.08815539","EPOCH":"2022-04-12T22:00:00.999936","NORAD_CAT_ID":"49755","ELEMENT_SET_NO":"999","REF_FRAME":"TEME","MEAN_MOTION_DOT":"0.00028481","RA_OF_ASC_NODE":"74.1384","MEAN_ANOMALY":"313.9148","INCLINATION":"53.2170","BSTAR":"0.00180150000000","COUNTRY_CODE":"US","DECAY_DATE":null,"TLE_LINE1":"1 49755U 21115AH  22102.91667824  .00028481  00000-0  18015-2 0  9990","PERIAPSIS":"538.084","OBJECT_ID":"2021-115AH","FILE":"3398892","OBJECT_TYPE":"PAYLOAD","PERIOD":"95.439","MEAN_MOTION_DDOT":"0.0000000000000","SITE":"AFETR","MEAN_ELEMENT_THEORY":"SGP4","EPHEMERIS_TYPE":"0","SEMIMAJOR_AXIS":"6917.955","REV_AT_EPOCH":"356","APOAPSIS":"541.556","CLASSIFICATION_TYPE":"U","TIME_SYSTEM":"UTC","ECCENTRICITY":"0.00025090","CENTER_NAME":"EARTH"},{"RA_OF_ASC_NODE":"64.1603","MEAN_MOTION_DOT":"0.00012036","REF_FRAME":"TEME","NORAD_CAT_ID":"49756","ELEMENT_SET_NO":"999","COUNTRY_CODE":"US","BSTAR":"0.00077294000000","INCLINATION":"53.2188","MEAN_ANOMALY":"149.1209","GP_ID":"201094308","RCS_SIZE":"LARGE","TLE_LINE2":"2 49756  53.2188  64.1603 0001632  72.3946 149.1209 15.08842740  3584","LAUNCH_DATE":"2021-12-02","OBJECT_NAME":"STARLINK-3207","EPOCH":"2022-04-12T22:00:00.999936","MEAN_MOTION":"15.08842740","ARG_OF_PERICENTER":"72.3946","APOAPSIS":"540.866","SEMIMAJOR_AXIS":"6917.872","REV_AT_EPOCH":"358","SITE":"AFETR","MEAN_ELEMENT_THEORY":"SGP4","EPHEMERIS_TYPE":"0","MEAN_MOTION_DDOT":"0.0000000000000","CENTER_NAME":"EARTH","ECCENTRICITY":"0.00016320","TIME_SYSTEM":"UTC","CLASSIFICATION_TYPE":"U","TLE_LINE1":"1 49756U 21115AJ  22102.91667824  .00012036  00000-0  77294-3 0  9995","PERIAPSIS":"538.608","DECAY_DATE":null,"OBJECT_ID":"2021-115AJ","PERIOD":"95.437","OBJECT_TYPE":"PAYLOAD","FILE":"3398892"},{"CLASSIFICATION_TYPE":"U","TIME_SYSTEM":"UTC","CENTER_NAME":"EARTH","ECCENTRICITY":"0.00016410","MEAN_MOTION_DDOT":"0.0000000000000","SITE":"AFETR","EPHEMERIS_TYPE":"0","MEAN_ELEMENT_THEORY":"SGP4","APOAPSIS":"540.882","SEMIMAJOR_AXIS":"6917.882","REV_AT_EPOCH":"358","FILE":"3398892","OBJECT_TYPE":"PAYLOAD","PERIOD":"95.438","TLE_LINE1":"1 49757U 21115AK  22102.91667824  .00010958  00000-0  70553-3 0  9998","DECAY_DATE":null,"PERIAPSIS":"538.612","OBJECT_ID":"2021-115AK","INCLINATION":"53.2169","MEAN_ANOMALY":"198.5163","BSTAR":"0.00070553000000","COUNTRY_CODE":"US","NORAD_CAT_ID":"49757","ELEMENT_SET_NO":"999","REF_FRAME":"TEME","MEAN_MOTION_DOT":"0.00010958","RA_OF_ASC_NODE":"64.1671","ARG_OF_PERICENTER":"63.0137","MEAN_MOTION":"15.08839489","EPOCH":"2022-04-12T22:00:00.999936","OBJECT_NAME":"STARLINK-3197","LAUNCH_DATE":"2021-12-02","TLE_LINE2":"2 49757  53.2169  64.1671 0001641  63.0137 198.5163 15.08839489  3581","RCS_SIZE":"LARGE","GP_ID":"201095560"},{"RA_OF_ASC_NODE":"64.1573","MEAN_MOTION_DOT":"0.00012309","REF_FRAME":"TEME","ELEMENT_SET_NO":"999","NORAD_CAT_ID":"49758","COUNTRY_CODE":"US","BSTAR":"0.00079056000000","INCLINATION":"53.2176","MEAN_ANOMALY":"115.9006","GP_ID":"201095310","RCS_SIZE":"LARGE","TLE_LINE2":"2 49758  53.2176  64.1573 0001611  65.6028 115.9006 15.08820269  3580","OBJECT_NAME":"STARLINK-3194","LAUNCH_DATE":"2021-12-02","EPOCH":"2022-04-12T22:00:00.999936","MEAN_MOTION":"15.08820269","ARG_OF_PERICENTER":"65.6028","APOAPSIS":"540.920","REV_AT_EPOCH":"358","SEMIMAJOR_AXIS":"6917.941","EPHEMERIS_TYPE":"0","SITE":"AFETR","MEAN_ELEMENT_THEORY":"SGP4","MEAN_MOTION_DDOT":"0.0000000000000","CENTER_NAME":"EARTH","ECCENTRICITY":"0.00016110","TIME_SYSTEM":"UTC","CLASSIFICATION_TYPE":"U","DECAY_DATE":null,"TLE_LINE1":"1 49758U 21115AL  22102.91667824  .00012309  00000-0  79056-3 0  9998","OBJECT_ID":"2021-115AL","PERIAPSIS":"538.691","PERIOD":"95.439","OBJECT_TYPE":"PAYLOAD","FILE":"3398892"},{"TLE_LINE2":"2 49759  53.2183  64.1581 0001662  60.6307 180.8336 15.08841558  3580","LAUNCH_DATE":"2021-12-02","OBJECT_NAME":"STARLINK-3204","GP_ID":"201094058","RCS_SIZE":"LARGE","MEAN_MOTION":"15.08841558","ARG_OF_PERICENTER":"60.6307","EPOCH":"2022-04-12T22:00:00.999936","REF_FRAME":"TEME","NORAD_CAT_ID":"49759","ELEMENT_SET_NO":"999","RA_OF_ASC_NODE":"64.1581","MEAN_MOTION_DOT":"0.00011504","BSTAR":"0.00073967000000","INCLINATION":"53.2183","MEAN_ANOMALY":"180.8336","COUNTRY_CODE":"US","OBJECT_ID":"2021-115AM","TLE_LINE1":"1 49759U 21115AM  22102.91667824  .00011504  00000-0  73967-3 0  9990","DECAY_DATE":null,"PERIAPSIS":"538.591","FILE":"3398892","PERIOD":"95.437","OBJECT_TYPE":"PAYLOAD","MEAN_MOTION_DDOT":"0.0000000000000","APOAPSIS":"540.890","SEMIMAJOR_AXIS":"6917.876","REV_AT_EPOCH":"358","MEAN_ELEMENT_THEORY":"SGP4","SITE":"AFETR","EPHEMERIS_TYPE":"0","CLASSIFICATION_TYPE":"U","CENTER_NAME":"EARTH","ECCENTRICITY":"0.00016620","TIME_SYSTEM":"UTC"},{"FILE":"3398892","OBJECT_TYPE":"PAYLOAD","PERIOD":"95.438","DECAY_DATE":null,"TLE_LINE1":"1 49760U 21115AN  22102.91667824  .00013631  00000-0  87297-3 0  9996","OBJECT_ID":"2021-115AN","PERIAPSIS":"538.559","CLASSIFICATION_TYPE":"U","TIME_SYSTEM":"UTC","ECCENTRICITY":"0.00017290","CENTER_NAME":"EARTH","MEAN_MOTION_DDOT":"0.0000000000000","SITE":"AFETR","MEAN_ELEMENT_THEORY":"SGP4","EPHEMERIS_TYPE":"0","SEMIMAJOR_AXIS":"6917.890","REV_AT_EPOCH":"358","APOAPSIS":"540.951","ARG_OF_PERICENTER":"54.2456","MEAN_MOTION":"15.08836799","EPOCH":"2022-04-12T22:00:00.999936","LAUNCH_DATE":"2021-12-02","OBJECT_NAME":"STARLINK-3199","TLE_LINE2":"2 49760  53.2191  64.1226 0001729  54.2456  87.2274 15.08836799  3587","RCS_SIZE":"LARGE","GP_ID":"201094809","MEAN_ANOMALY":"87.2274","INCLINATION":"53.2191","BSTAR":"0.00087297000000","COUNTRY_CODE":"US","ELEMENT_SET_NO":"999","NORAD_CAT_ID":"49760","REF_FRAME":"TEME","MEAN_MOTION_DOT":"0.00013631","RA_OF_ASC_NODE":"64.1226"},{"SEMIMAJOR_AXIS":"6917.892","REV_AT_EPOCH":"358","APOAPSIS":"540.871","SITE":"AFETR","EPHEMERIS_TYPE":"0","MEAN_ELEMENT_THEORY":"SGP4","MEAN_MOTION_DDOT":"0.0000000000000","ECCENTRICITY":"0.00016100","CENTER_NAME":"EARTH","TIME_SYSTEM":"UTC","CLASSIFICATION_TYPE":"U","TLE_LINE1":"1 49761U 21115AP  22102.91667824  .00012237  00000-0  78569-3 0  9990","DECAY_DATE":null,"OBJECT_ID":"2021-115AP","PERIAPSIS":"538.644","PERIOD":"95.438","OBJECT_TYPE":"PAYLOAD","FILE":"3398892","RA_OF_ASC_NODE":"64.1594","MEAN_MOTION_DOT":"0.00012237","REF_FRAME":"TEME","ELEMENT_SET_NO":"999","NORAD_CAT_ID":"49761","COUNTRY_CODE":"US","BSTAR":"0.00078569000000","MEAN_ANOMALY":"135.1237","INCLINATION":"53.2186","GP_ID":"201095060","RCS_SIZE":"LARGE","TLE_LINE2":"2 49761  53.2186  64.1594 0001610  66.3998 135.1237 15.08836069  3586","LAUNCH_DATE":"2021-12-02","OBJECT_NAME":"STARLINK-3203","EPOCH":"2022-04-12T22:00:00.999936","MEAN_MOTION":"15.08836069","ARG_OF_PERICENTER":"66.3998"}];
